APRIZESAT 2             
1 28366U 04025A   23026.61021334  .00000294  00000+0  10624-3 0  9999
2 28366  98.1345 248.9709 0107951  24.3231 336.2998 14.36907113973862
SAUDICOMSAT 1           
1 28369U 04025D   23026.50154043  .00000849  00000+0  21589-3 0  9992
2 28369  98.4731 354.9352 0032686 210.2842 149.6466 14.53007043984236
SAUDICOMSAT 2           
1 28370U 04025E   23026.42669765  .00000868  00000+0  24203-3 0  9994
2 28370  98.5645 354.4370 0058404  47.2697 313.3390 14.47879416980898
APRIZESAT 1             
1 28372U 04025G   23026.44263532  .00000768  00000+0  20818-3 0  9997
2 28372  98.5257 354.4378 0045312 318.5349  41.2409 14.49962418982414
NANOSAT-1               
1 28493U 04049B   23026.00654914  .00001946  00000+0  30092-3 0  9991
2 28493  98.1169 132.0784 0003498 313.7926  46.2993 14.74415578972650
SAUDICOMSAT 7           
1 31119U 07012C   23026.43705726  .00001140  00000+0  22936-3 0  9992
2 31119  98.2127 335.5414 0060723 112.6249 248.1390 14.62376531841293
SAUDICOMSAT 6           
1 31121U 07012E   23026.39812381  .00001026  00000+0  21986-3 0  9993
2 31121  98.2516 330.7376 0075046 218.5060 141.0772 14.59145962839451
SAUDICOMSAT 5           
1 31124U 07012H   23026.44491762  .00001502  00000+0  28949-3 0  9993
2 31124  98.1823 336.9292 0052257  58.0111 302.6155 14.64130422842211
SAUDICOMSAT 3           
1 31125U 07012J   23026.36042590  .00001847  00000+0  34157-3 0  9996
2 31125  98.1487 338.0776 0042779   3.3492 356.7990 14.66009258843167
SAUDICOMSAT 4           
1 31127U 07012L   23026.39502556  .00000999  00000+0  20765-3 0  9991
2 31127  98.2350 333.9414 0067765 162.4088 197.9481 14.60881319840428
APRIZESAT 4             
1 35684U 09041D   23026.57871720  .00001356  00000+0  18391-3 0  9999
2 35684  98.2993  52.7680 0046454 357.4752   2.6217 14.79967638728063
APRIZESAT 3             
1 35686U 09041F   23026.19517832  .00002827  00000+0  29675-3 0  9991
2 35686  98.0988 122.7958 0071323 177.2428 182.9196 14.88490781731730
AISSAT 1                
1 36797U 10035C   23026.52901567  .00002950  00000+0  32884-3 0  9992
2 36797  98.2328 223.8175 0010954 158.4217 201.7462 14.87845362679609
S-NET D                 
1 43186U 18014G   23026.61257515  .00005605  00000+0  46647-3 0  9996
2 43186  97.6458 293.0178 0008019 263.1494  96.8817 14.99044003272330
S-NET B                 
1 43187U 18014H   23026.61308208  .00005567  00000+0  46336-3 0  9995
2 43187  97.6452 292.9586 0007925 263.5842  96.4479 14.99040969272339
S-NET A                 
1 43188U 18014J   23026.61336699  .00005486  00000+0  45674-3 0  9995
2 43188  97.6460 293.0360 0007967 263.5980  96.4336 14.99041228272331
S-NET C                 
1 43189U 18014K   23026.61462592  .00005576  00000+0  46420-3 0  9998
2 43189  97.6456 292.9453 0007830 263.9599  96.0732 14.99036904270886
SALSAT                  
1 46495U 20068K   23026.41705241  .00005144  00000+0  35736-3 0  9991
2 46495  97.7546 333.2508 0014550 238.1892 121.7918 15.05908001127727
